<?xml version='1.0' encoding='utf-8'?>
<kml xmlns="http://www.opengis.net/kml/2.2">
  <Document>
    <name>Almuñécar a Loja</name>
    <Style id="estiloSalidaMeta">
      <IconStyle>
        <color>ff0000ff</color>
        <scale>1.4</scale>
      </IconStyle>
    </Style>
    <Style id="estiloPuerto">
      <IconStyle>
        <color>ff00ff00</color>
        <scale>1.2</scale>
      </IconStyle>
    </Style>
    <Style id="estiloSprint">
      <IconStyle>
        <color>ffff0000</color>
        <scale>1.2</scale>
      </IconStyle>
    </Style>
    <Style id="estiloAnonimo">
      <IconStyle>
        <color>ff00ffff</color>
        <scale>0.5</scale>
      </IconStyle>
    </Style>
    <Style id="estiloRuta">
      <LineStyle>
        <color>ff0000ff</color>
        <width>4</width>
      </LineStyle>
    </Style>
    <Placemark>
      <name>Recorrido</name>
      <styleUrl>#estiloRuta</styleUrl>
      <LineString>
        <tessellate>1</tessellate>
        <coordinates>-3.60947,36.74584,86.0
-3.56318,36.74475,20.0
-3.53779,36.78927,72.0
-3.54181,36.81285,104.0
-3.58199,36.84094,327.0
-3.5643,36.83974,470.0
-3.53848,36.87248,822.0
-3.55219,36.90862,711.0
-3.58348,36.93014,536.0
-3.61632,36.92958,743.0
-3.60145,36.95661,865.0
-3.61073,36.98562,739.0
-3.59423,36.99053,748.0
-3.62672,37.00918,734.0
-3.64808,37.04933,847.0
-3.72447,36.9904,1142.0
-3.72558,36.93527,1350.0
-3.78451,36.95579,1034.0
-3.85438,36.95712,853.0
-3.87142,36.98889,863.0
-3.94195,37.03078,1036.0
-3.97084,37.02244,885.0
-3.9654,37.04155,831.0
-3.98928,37.06835,740.0
-3.98569,37.13059,705.0
-3.94905,37.16655,619.0
-3.95744,37.18477,570.0
-3.94135,37.20196,511.0
-3.96354,37.23812,555.0
-3.99545,37.30426,1048.0
-4.02562,37.32316,741.0
-4.07758,37.30212,673.0
-4.08443,37.25638,561.0
-4.05384,37.19087,479.0
-4.14359,37.17222,457.0
-4.14153,37.16335,498.0</coordinates>
        <altitudeMode>clampToGround</altitudeMode>
      </LineString>
    </Placemark>
    <Placemark>
      <name>Salida: Almuñécar</name>
      <description>Km 0.00 - Altitud 86 m</description>
      <styleUrl>#estiloSalidaMeta</styleUrl>
      <Point>
        <coordinates>-3.60947,36.74584,86.0</coordinates>
        <altitudeMode>clampToGround</altitudeMode>
      </Point>
    </Placemark>
    <Placemark>
      <name>Meta: Loja</name>
      <description>Km 192.80 - Altitud 498 m</description>
      <styleUrl>#estiloSalidaMeta</styleUrl>
      <Point>
        <coordinates>-4.14153,37.16335,498.0</coordinates>
        <altitudeMode>clampToGround</altitudeMode>
      </Point>
    </Placemark>
    <Placemark>
      <description>Km 4.49 - Altitud 20 m</description>
      <styleUrl>#estiloAnonimo</styleUrl>
      <Point>
        <coordinates>-3.56318,36.74475,20.0</coordinates>
        <altitudeMode>clampToGround</altitudeMode>
      </Point>
    </Placemark>
    <Placemark>
      <description>Km 10.54 - Altitud 72 m</description>
      <styleUrl>#estiloAnonimo</styleUrl>
      <Point>
        <coordinates>-3.53779,36.78927,72.0</coordinates>
        <altitudeMode>clampToGround</altitudeMode>
      </Point>
    </Placemark>
    <Placemark>
      <description>Km 13.76 - Altitud 104 m</description>
      <styleUrl>#estiloAnonimo</styleUrl>
      <Point>
        <coordinates>-3.54181,36.81285,104.0</coordinates>
        <altitudeMode>clampToGround</altitudeMode>
      </Point>
    </Placemark>
    <Placemark>
      <description>Km 20.76 - Altitud 327 m</description>
      <styleUrl>#estiloAnonimo</styleUrl>
      <Point>
        <coordinates>-3.58199,36.84094,327.0</coordinates>
        <altitudeMode>clampToGround</altitudeMode>
      </Point>
    </Placemark>
    <Placemark>
      <description>Km 22.56 - Altitud 470 m</description>
      <styleUrl>#estiloAnonimo</styleUrl>
      <Point>
        <coordinates>-3.5643,36.83974,470.0</coordinates>
        <altitudeMode>clampToGround</altitudeMode>
      </Point>
    </Placemark>
    <Placemark>
      <name>Alto de la Venta de la Cebada</name>
      <description>Km 31.20 - Altitud 822 m</description>
      <styleUrl>#estiloPuerto</styleUrl>
      <Point>
        <coordinates>-3.53848,36.87248,822.0</coordinates>
        <altitudeMode>clampToGround</altitudeMode>
      </Point>
    </Placemark>
    <Placemark>
      <description>Km 35.46 - Altitud 711 m</description>
      <styleUrl>#estiloAnonimo</styleUrl>
      <Point>
        <coordinates>-3.55219,36.90862,711.0</coordinates>
        <altitudeMode>clampToGround</altitudeMode>
      </Point>
    </Placemark>
    <Placemark>
      <description>Km 40.26 - Altitud 536 m</description>
      <styleUrl>#estiloAnonimo</styleUrl>
      <Point>
        <coordinates>-3.58348,36.93014,536.0</coordinates>
        <altitudeMode>clampToGround</altitudeMode>
      </Point>
    </Placemark>
    <Placemark>
      <description>Km 43.75 - Altitud 743 m</description>
      <styleUrl>#estiloAnonimo</styleUrl>
      <Point>
        <coordinates>-3.61632,36.92958,743.0</coordinates>
        <altitudeMode>clampToGround</altitudeMode>
      </Point>
    </Placemark>
    <Placemark>
      <description>Km 49.14 - Altitud 865 m</description>
      <styleUrl>#estiloAnonimo</styleUrl>
      <Point>
        <coordinates>-3.60145,36.95661,865.0</coordinates>
        <altitudeMode>clampToGround</altitudeMode>
      </Point>
    </Placemark>
    <Placemark>
      <description>Km 53.79 - Altitud 739 m</description>
      <styleUrl>#estiloAnonimo</styleUrl>
      <Point>
        <coordinates>-3.61073,36.98562,739.0</coordinates>
        <altitudeMode>clampToGround</altitudeMode>
      </Point>
    </Placemark>
    <Placemark>
      <description>Km 55.52 - Altitud 748 m</description>
      <styleUrl>#estiloAnonimo</styleUrl>
      <Point>
        <coordinates>-3.59423,36.99053,748.0</coordinates>
        <altitudeMode>clampToGround</altitudeMode>
      </Point>
    </Placemark>
    <Placemark>
      <description>Km 59.35 - Altitud 734 m</description>
      <styleUrl>#estiloAnonimo</styleUrl>
      <Point>
        <coordinates>-3.62672,37.00918,734.0</coordinates>
        <altitudeMode>clampToGround</altitudeMode>
      </Point>
    </Placemark>
    <Placemark>
      <description>Km 65.15 - Altitud 847 m</description>
      <styleUrl>#estiloAnonimo</styleUrl>
      <Point>
        <coordinates>-3.64808,37.04933,847.0</coordinates>
        <altitudeMode>clampToGround</altitudeMode>
      </Point>
    </Placemark>
    <Placemark>
      <description>Km 75.56 - Altitud 1142 m</description>
      <styleUrl>#estiloAnonimo</styleUrl>
      <Point>
        <coordinates>-3.72447,36.9904,1142.0</coordinates>
        <altitudeMode>clampToGround</altitudeMode>
      </Point>
    </Placemark>
    <Placemark>
      <name>Alto del Legionario</name>
      <description>Km 83.40 - Altitud 1350 m</description>
      <styleUrl>#estiloPuerto</styleUrl>
      <Point>
        <coordinates>-3.72558,36.93527,1350.0</coordinates>
        <altitudeMode>clampToGround</altitudeMode>
      </Point>
    </Placemark>
    <Placemark>
      <description>Km 89.51 - Altitud 1034 m</description>
      <styleUrl>#estiloAnonimo</styleUrl>
      <Point>
        <coordinates>-3.78451,36.95579,1034.0</coordinates>
        <altitudeMode>clampToGround</altitudeMode>
      </Point>
    </Placemark>
    <Placemark>
      <description>Km 96.48 - Altitud 853 m</description>
      <styleUrl>#estiloAnonimo</styleUrl>
      <Point>
        <coordinates>-3.85438,36.95712,853.0</coordinates>
        <altitudeMode>clampToGround</altitudeMode>
      </Point>
    </Placemark>
    <Placemark>
      <description>Km 101.60 - Altitud 863 m</description>
      <styleUrl>#estiloAnonimo</styleUrl>
      <Point>
        <coordinates>-3.87142,36.98889,863.0</coordinates>
        <altitudeMode>clampToGround</altitudeMode>
      </Point>
    </Placemark>
    <Placemark>
      <description>Km 110.98 - Altitud 1036 m</description>
      <styleUrl>#estiloAnonimo</styleUrl>
      <Point>
        <coordinates>-3.94195,37.03078,1036.0</coordinates>
        <altitudeMode>clampToGround</altitudeMode>
      </Point>
    </Placemark>
    <Placemark>
      <description>Km 114.38 - Altitud 885 m</description>
      <styleUrl>#estiloAnonimo</styleUrl>
      <Point>
        <coordinates>-3.97084,37.02244,885.0</coordinates>
        <altitudeMode>clampToGround</altitudeMode>
      </Point>
    </Placemark>
    <Placemark>
      <description>Km 116.70 - Altitud 831 m</description>
      <styleUrl>#estiloAnonimo</styleUrl>
      <Point>
        <coordinates>-3.9654,37.04155,831.0</coordinates>
        <altitudeMode>clampToGround</altitudeMode>
      </Point>
    </Placemark>
    <Placemark>
      <description>Km 120.49 - Altitud 740 m</description>
      <styleUrl>#estiloAnonimo</styleUrl>
      <Point>
        <coordinates>-3.98928,37.06835,740.0</coordinates>
        <altitudeMode>clampToGround</altitudeMode>
      </Point>
    </Placemark>
    <Placemark>
      <description>Km 127.59 - Altitud 705 m</description>
      <styleUrl>#estiloAnonimo</styleUrl>
      <Point>
        <coordinates>-3.98569,37.13059,705.0</coordinates>
        <altitudeMode>clampToGround</altitudeMode>
      </Point>
    </Placemark>
    <Placemark>
      <description>Km 133.33 - Altitud 619 m</description>
      <styleUrl>#estiloAnonimo</styleUrl>
      <Point>
        <coordinates>-3.94905,37.16655,619.0</coordinates>
        <altitudeMode>clampToGround</altitudeMode>
      </Point>
    </Placemark>
    <Placemark>
      <description>Km 136.06 - Altitud 570 m</description>
      <styleUrl>#estiloAnonimo</styleUrl>
      <Point>
        <coordinates>-3.95744,37.18477,570.0</coordinates>
        <altitudeMode>clampToGround</altitudeMode>
      </Point>
    </Placemark>
    <Placemark>
      <description>Km 139.10 - Altitud 511 m</description>
      <styleUrl>#estiloAnonimo</styleUrl>
      <Point>
        <coordinates>-3.94135,37.20196,511.0</coordinates>
        <altitudeMode>clampToGround</altitudeMode>
      </Point>
    </Placemark>
    <Placemark>
      <name>Tocón</name>
      <description>Km 144.90 - Altitud 555 m</description>
      <styleUrl>#estiloSprint</styleUrl>
      <Point>
        <coordinates>-3.96354,37.23812,555.0</coordinates>
        <altitudeMode>clampToGround</altitudeMode>
      </Point>
    </Placemark>
    <Placemark>
      <name>Puerto de Granada</name>
      <description>Km 155.40 - Altitud 1048 m</description>
      <styleUrl>#estiloPuerto</styleUrl>
      <Point>
        <coordinates>-3.99545,37.30426,1048.0</coordinates>
        <altitudeMode>clampToGround</altitudeMode>
      </Point>
    </Placemark>
    <Placemark>
      <description>Km 161.77 - Altitud 741 m</description>
      <styleUrl>#estiloAnonimo</styleUrl>
      <Point>
        <coordinates>-4.02562,37.32316,741.0</coordinates>
        <altitudeMode>clampToGround</altitudeMode>
      </Point>
    </Placemark>
    <Placemark>
      <description>Km 167.37 - Altitud 673 m</description>
      <styleUrl>#estiloAnonimo</styleUrl>
      <Point>
        <coordinates>-4.07758,37.30212,673.0</coordinates>
        <altitudeMode>clampToGround</altitudeMode>
      </Point>
    </Placemark>
    <Placemark>
      <description>Km 173.48 - Altitud 561 m</description>
      <styleUrl>#estiloAnonimo</styleUrl>
      <Point>
        <coordinates>-4.08443,37.25638,561.0</coordinates>
        <altitudeMode>clampToGround</altitudeMode>
      </Point>
    </Placemark>
    <Placemark>
      <description>Km 181.87 - Altitud 479 m</description>
      <styleUrl>#estiloAnonimo</styleUrl>
      <Point>
        <coordinates>-4.05384,37.19087,479.0</coordinates>
        <altitudeMode>clampToGround</altitudeMode>
      </Point>
    </Placemark>
    <Placemark>
      <description>Km 191.10 - Altitud 457 m</description>
      <styleUrl>#estiloAnonimo</styleUrl>
      <Point>
        <coordinates>-4.14359,37.17222,457.0</coordinates>
        <altitudeMode>clampToGround</altitudeMode>
      </Point>
    </Placemark>
  </Document>
</kml>